OBJECT_NAME,OBJECT_ID,EPOCH,MEAN_MOTION,ECCENTRICITY,INCLINATION,RA_OF_ASC_NODE,ARG_OF_PERICENTER,MEAN_ANOMALY,EPHEMERIS_TYPE,CLASSIFICATION_TYPE,NORAD_CAT_ID,ELEMENT_SET_NO,REV_AT_EPOCH,BSTAR,MEAN_MOTION_DOT,MEAN_MOTION_DDOT
STARLINK-34322,2025-142G,2026-07-23T14:48:09.638208,14.98335375,.00031884,70.0020,331.6166,268.7393,91.3401,0,U,64702,999,6000,.11386427E-3,.1266E-4,0
STARLINK-34470,2025-142H,2026-07-23T14:30:07.888608,14.98344073,.00013198,69.9968,331.5699,247.9163,112.1856,0,U,64703,999,5982,.35963146E-3,.4202E-4,0
STARLINK-34405,2025-142J,2026-07-23T14:54:10.473984,14.98340740,.00029307,70.0028,331.6586,268.0578,92.0245,0,U,64704,999,5985,.26386409E-3,.3058E-4,0
STARLINK-34406,2025-142K,2026-07-23T09:05:29.607360,14.98344760,.00031401,70.0022,332.4196,268.9614,91.1186,0,U,64705,999,5992,.5745882E-3,.6772E-4,0
STARLINK-34559,2025-142L,2026-07-23T08:29:24.532224,14.98334806,.00022715,70.0034,332.3291,265.6480,94.4420,0,U,64706,999,5981,.23982433E-3,.277E-4,0
STARLINK-34316,2025-142M,2026-07-23T14:59:57.315552,14.98331188,.00029384,70.0024,331.6686,264.1981,95.8843,0,U,64707,999,6001,.51628465E-3,.6073E-4,0
STARLINK-34563,2025-142N,2026-07-23T07:59:23.234784,14.98336716,.00023912,70.0012,332.6532,263.8916,96.1971,0,U,64708,999,5977,.36695243E-4,.345E-5,0
STARLINK-34499,2025-142P,2026-07-23T14:47:55.734720,14.98337046,.00032954,70.0018,331.6212,266.4027,93.6755,0,U,64709,999,5982,-.36899302E-4,-.533E-5,0
STARLINK-34447,2025-142Q,2026-07-23T08:53:41.130816,14.98340880,.00023463,70.0006,332.3491,266.5595,93.5296,0,U,64710,999,5997,.42343167E-3,.4964E-4,0
STARLINK-34312,2025-142R,2026-07-23T08:41:39.619104,14.98340158,.00031855,70.0024,332.3525,266.1880,93.8914,0,U,64711,999,5997,.2913852E-3,.3386E-4,0
STARLINK-34515,2025-142S,2026-07-22T19:22:31.948608,14.98341409,.00030205,70.0021,333.6073,271.9365,88.1448,0,U,64712,999,5970,.16706231E-3,.1902E-4,0
STARLINK-34583,2025-142T,2026-07-23T07:47:21.866496,14.98335130,.00032542,70.0002,332.5970,266.1549,93.9238,0,U,64713,999,5977,.14534316E-3,.1642E-4,0
STARLINK-34574,2025-142U,2026-07-23T08:59:41.811072,14.98329059,.00034211,70.0054,332.4000,267.7943,92.2825,0,U,64714,999,5981,.38252438E-3,.4474E-4,0
STARLINK-34533,2025-142V,2026-07-23T15:05:57.944832,14.98336489,.00029198,70.0020,331.6852,262.2898,97.7930,0,U,64715,999,5982,.17403075E-3,.1984E-4,0
STARLINK-34548,2025-142W,2026-07-22T17:52:10.385760,14.98338769,.0003164,70.0026,333.8146,264.0844,95.9955,0,U,64716,999,5969,.26549177E-3,.3077E-4,0
STARLINK-34568,2025-142X,2026-07-23T08:53:26.969856,14.98334497,.00031465,70.0023,332.3879,263.0109,97.0693,0,U,64717,999,5981,.1217945E-3,.1361E-4,0
STARLINK-34546,2025-142Y,2026-07-22T01:38:48.285888,14.98341123,.00033125,70.0017,335.4665,269.0334,91.0445,0,U,64718,999,5978,.32722163E-3,.3815E-4,0
STARLINK-34577,2025-142Z,2026-07-23T08:59:27.376224,14.98343672,.00027452,70.0034,332.3661,274.0204,86.0641,0,U,64719,999,5981,.2775105E-3,.3221E-4,0
STARLINK-34572,2025-142AA,2026-07-23T14:00:01.000224,14.98338218,.00033197,70.0023,331.8233,269.9352,180.6641,0,U,64720,999,561,-.1578439E-2,-.1888E-3,0
STARLINK-34558,2025-142AB,2026-07-23T08:47:40.421184,14.98341848,.00031389,70.0040,332.3677,264.3876,95.6926,0,U,64721,999,5978,.92256342E-4,.1008E-4,0
MTG-S1,2025-143A,2026-07-23T07:51:05.624352,1.00276021,.00031695,0.5803,346.9400,255.5573,176.0210,0,U,64723,999,378,0,-.1E-7,0
STARLINK-34393,2025-144A,2026-07-23T14:15:38.127456,15.34400439,.00008206,53.1589,268.7770,83.0194,277.0902,0,U,64724,999,6054,.83528983E-3,.27951E-3,0
STARLINK-34562,2025-144B,2026-07-23T13:44:42.223488,15.30189693,.00014384,53.1582,270.0621,95.0013,265.1152,0,U,64725,999,6049,.72334218E-3,.21118E-3,0
STARLINK-34557,2025-144C,2026-07-23T13:27:17.460000,15.34387186,.00009344,53.1578,269.2771,90.1333,269.9776,0,U,64726,999,6052,.77172047E-3,.25777E-3,0
STARLINK-34242,2025-144D,2026-07-23T13:55:20.389440,15.30213313,.00009252,53.1591,270.1053,67.6143,292.4956,0,U,64727,999,6051,.64675662E-3,.18852E-3,0
STARLINK-34239,2025-144E,2026-07-23T11:29:13.263936,15.34458189,.00022309,53.1594,269.4740,83.4252,276.7005,0,U,64728,999,6051,.78804998E-3,.26393E-3,0
STARLINK-34588,2025-144F,2026-07-23T08:53:25.551168,15.30170861,.00013242,53.1591,270.9297,100.4859,259.6291,0,U,64729,999,6048,.58654142E-3,.17037E-3,0
STARLINK-34606,2025-144G,2026-07-23T08:12:34.152480,15.34378269,.00005403,53.1582,270.0476,115.2629,244.8429,0,U,64730,999,6049,.46898841E-3,.15491E-3,0
STARLINK-34552,2025-144H,2026-07-23T12:17:44.395296,15.34390254,.00015291,53.1584,269.6817,73.0767,287.0403,0,U,64731,999,6051,.98201456E-3,.32938E-3,0
STARLINK-34596,2025-144J,2026-07-23T14:12:36.716832,15.34384132,.00010221,53.1578,268.7633,68.6030,291.5081,0,U,64732,999,6053,.92502487E-3,.30991E-3,0
