STARLINK-34322          
1 64702U 25142G   26204.61677822  .00001266  00000+0  11386-3 0  9992
2 64702  70.0020 331.6166 0003188 268.7393  91.3401 14.98335375 60006
STARLINK-34470          
1 64703U 25142H   26204.60425797  .00004202  00000+0  35963-3 0  9994
2 64703  69.9968 331.5699 0001319 247.9163 112.1856 14.98344073 59822
STARLINK-34405          
1 64704U 25142J   26204.62095456  .00003058  00000+0  26386-3 0  9999
2 64704  70.0028 331.6586 0002930 268.0578  92.0245 14.98340740 59851
STARLINK-34406          
1 64705U 25142K   26204.37881490  .00006772  00000+0  57459-3 0  9994
2 64705  70.0022 332.4196 0003140 268.9614  91.1186 14.98344760 59924
STARLINK-34559          
1 64706U 25142L   26204.35375616  .00002770  00000+0  23982-3 0  9999
2 64706  70.0034 332.3291 0002271 265.6480  94.4420 14.98334806 59817
STARLINK-34316          
1 64707U 25142M   26204.62496893  .00006073  00000+0  51628-3 0  9999
2 64707  70.0024 331.6686 0002938 264.1981  95.8843 14.98331188 60015
STARLINK-34563          
1 64708U 25142N   26204.33290781  .00000345  00000+0  36695-4 0  9990
2 64708  70.0012 332.6532 0002391 263.8916  96.1971 14.98336716 59770
STARLINK-34499          
1 64709U 25142P   26204.61661730 -.00000533  00000+0 -36899-4 0  9995
2 64709  70.0018 331.6212 0003295 266.4027  93.6755 14.98337046 59822
STARLINK-34447          
1 64710U 25142Q   26204.37061494  .00004964  00000+0  42343-3 0  9991
2 64710  70.0006 332.3491 0002346 266.5595  93.5296 14.98340880 59970
STARLINK-34312          
1 64711U 25142R   26204.36226411  .00003386  00000+0  29139-3 0  9998
2 64711  70.0024 332.3525 0003185 266.1880  93.8914 14.98340158 59972
STARLINK-34515          
1 64712U 25142S   26203.80731422  .00001902  00000+0  16706-3 0  9998
2 64712  70.0021 333.6073 0003020 271.9365  88.1448 14.98341409 59702
STARLINK-34583          
1 64713U 25142T   26204.32455864  .00001642  00000+0  14534-3 0  9998
2 64713  70.0002 332.5970 0003254 266.1549  93.9238 14.98335130 59777
STARLINK-34574          
1 64714U 25142U   26204.37478948  .00004474  00000+0  38252-3 0  9991
2 64714  70.0054 332.4000 0003421 267.7943  92.2825 14.98329059 59811
STARLINK-34533          
1 64715U 25142V   26204.62914288  .00001984  00000+0  17403-3 0  9990
2 64715  70.0020 331.6852 0002919 262.2898  97.7930 14.98336489 59824
STARLINK-34548          
1 64716U 25142W   26203.74456465  .00003077  00000+0  26549-3 0  9997
2 64716  70.0026 333.8146 0003164 264.0844  95.9955 14.98338769 59690
STARLINK-34568          
1 64717U 25142X   26204.37045104  .00001361  00000+0  12179-3 0  9990
2 64717  70.0023 332.3879 0003146 263.0109  97.0693 14.98334497 59818
STARLINK-34546          
1 64718U 25142Y   26203.06861442  .00003815  00000+0  32722-3 0  9999
2 64718  70.0017 335.4665 0003312 269.0334  91.0445 14.98341123 59789
STARLINK-34577          
1 64719U 25142Z   26204.37462241  .00003221  00000+0  27751-3 0  9996
2 64719  70.0034 332.3661 0002745 274.0204  86.0641 14.98343672 59819
STARLINK-34572          
1 64720U 25142AA  26204.58334491 -.00018880  00000+0 -15784-2 0  9997
2 64720  70.0023 331.8233 0003319 269.9352 180.6641 14.98338218  5613
STARLINK-34558          
1 64721U 25142AB  26204.36644006  .00001008  00000+0  92256-4 0  9993
2 64721  70.0040 332.3677 0003138 264.3876  95.6926 14.98341848 59781
MTG-S1                  
1 64723U 25143A   26204.32714843 -.00000001  00000+0  00000+0 0  9993
2 64723   0.5803 346.9400 0003169 255.5573 176.0210  1.00276021  3781
STARLINK-34393          
1 64724U 25144A   26204.59419129  .00027951  00000+0  83529-3 0  9996
2 64724  53.1589 268.7770 0000820  83.0194 277.0902 15.34400439 60543
STARLINK-34562          
1 64725U 25144B   26204.57271092  .00021118  00000+0  72334-3 0  9991
2 64725  53.1582 270.0621 0001438  95.0013 265.1152 15.30189693 60498
STARLINK-34557          
1 64726U 25144C   26204.56061875  .00025777  00000+0  77172-3 0  9997
2 64726  53.1578 269.2771 0000934  90.1333 269.9776 15.34387186 60520
STARLINK-34242          
1 64727U 25144D   26204.58009710  .00018852  00000+0  64676-3 0  9991
2 64727  53.1591 270.1053 0000925  67.6143 292.4956 15.30213313 60514
STARLINK-34239          
1 64728U 25144E   26204.47862574  .00026393  00000+0  78805-3 0  9993
2 64728  53.1594 269.4740 0002230  83.4252 276.7005 15.34458189 60516
STARLINK-34588          
1 64729U 25144F   26204.37043462  .00017037  00000+0  58654-3 0  9995
2 64729  53.1591 270.9297 0001324 100.4859 259.6291 15.30170861 60481
STARLINK-34606          
1 64730U 25144G   26204.34206195  .00015491  00000+0  46899-3 0  9998
2 64730  53.1582 270.0476 0000540 115.2629 244.8429 15.34378269 60497
STARLINK-34552          
1 64731U 25144H   26204.51231939  .00032938  00000+0  98201-3 0  9991
2 64731  53.1584 269.6817 0001529  73.0767 287.0403 15.34390254 60517
STARLINK-34596          
1 64732U 25144J   26204.59209163  .00030991  00000+0  92502-3 0  9999
2 64732  53.1578 268.7633 0001022  68.6030 291.5081 15.34384132 60530
